[{"OBJECT_NAME":"ONEWEB-0713","OBJECT_ID":"2023-004AM","EPOCH":"2026-01-23T12:51:07.625088","MEAN_MOTION":13.11415869,"ECCENTRICITY":0.00022377,"INCLINATION":87.8821,"RA_OF_ASC_NODE":49.8546,"ARG_OF_PERICENTER":96.4147,"MEAN_ANOMALY":263.7236,"EPHEMERIS_TYPE":0,"CLASSIFICATION_TYPE":"U","NORAD_CAT_ID":55175,"ELEMENT_SET_NO":999,"REV_AT_EPOCH":14686,"BSTAR":0.0012125121,"MEAN_MOTION_DOT":4.42e-6,"MEAN_MOTION_DDOT":0},{"OBJECT_NAME":"ONEWEB-0715","OBJECT_ID":"2023-004AN","EPOCH":"2026-01-23T10:53:55.104000","MEAN_MOTION":13.11415715,"ECCENTRICITY":0.00018734,"INCLINATION":87.8819,"RA_OF_ASC_NODE":49.8716,"ARG_OF_PERICENTER":117.4398,"MEAN_ANOMALY":242.692,"EPHEMERIS_TYPE":0,"CLASSIFICATION_TYPE":"U","NORAD_CAT_ID":55176,"ELEMENT_SET_NO":999,"REV_AT_EPOCH":14689,"BSTAR":0.00062978778,"MEAN_MOTION_DOT":2.36e-6,"MEAN_MOTION_DDOT":0},{"OBJECT_NAME":"ONEWEB-0716","OBJECT_ID":"2023-004AP","EPOCH":"2026-01-23T11:06:16.600032","MEAN_MOTION":13.17648762,"ECCENTRICITY":0.00016612,"INCLINATION":87.9082,"RA_OF_ASC_NODE":34.6297,"ARG_OF_PERICENTER":85.5332,"MEAN_ANOMALY":274.5989,"EPHEMERIS_TYPE":0,"CLASSIFICATION_TYPE":"U","NORAD_CAT_ID":55177,"ELEMENT_SET_NO":999,"REV_AT_EPOCH":14852,"BSTAR":8.209279e-5,"MEAN_MOTION_DOT":4.5e-7,"MEAN_MOTION_DDOT":0},{"OBJECT_NAME":"ONEWEB-0717","OBJECT_ID":"2023-004AQ","EPOCH":"2026-01-23T12:31:19.677792","MEAN_MOTION":13.17648918,"ECCENTRICITY":0.00025275,"INCLINATION":87.9095,"RA_OF_ASC_NODE":34.5929,"ARG_OF_PERICENTER":97.046,"MEAN_ANOMALY":263.0959,"EPHEMERIS_TYPE":0,"CLASSIFICATION_TYPE":"U","NORAD_CAT_ID":55178,"ELEMENT_SET_NO":999,"REV_AT_EPOCH":14858,"BSTAR":4.1302161e-5,"MEAN_MOTION_DOT":2.9e-7,"MEAN_MOTION_DDOT":0},{"OBJECT_NAME":"ONEWEB-0719","OBJECT_ID":"2023-004AR","EPOCH":"2026-01-23T10:56:34.391040","MEAN_MOTION":13.17647939,"ECCENTRICITY":0.00018663,"INCLINATION":87.9094,"RA_OF_ASC_NODE":34.5881,"ARG_OF_PERICENTER":84.9984,"MEAN_ANOMALY":275.1361,"EPHEMERIS_TYPE":0,"CLASSIFICATION_TYPE":"U","NORAD_CAT_ID":55179,"ELEMENT_SET_NO":999,"REV_AT_EPOCH":14852,"BSTAR":0.00016784596,"MEAN_MOTION_DOT":7.8e-7,"MEAN_MOTION_DDOT":0},{"OBJECT_NAME":"ONEWEB-0530","OBJECT_ID":"2023-029A","EPOCH":"2026-01-23T11:17:52.226304","MEAN_MOTION":13.20772905,"ECCENTRICITY":0.0002192,"INCLINATION":87.9225,"RA_OF_ASC_NODE":303.356,"ARG_OF_PERICENTER":76.6091,"MEAN_ANOMALY":283.5287,"EPHEMERIS_TYPE":0,"CLASSIFICATION_TYPE":"U","NORAD_CAT_ID":55796,"ELEMENT_SET_NO":999,"REV_AT_EPOCH":14204,"BSTAR":0.0003972966,"MEAN_MOTION_DOT":1.75e-6,"MEAN_MOTION_DDOT":0},{"OBJECT_NAME":"ONEWEB-0534","OBJECT_ID":"2023-029B","EPOCH":"2026-01-23T12:48:47.151648","MEAN_MOTION":13.20773112,"ECCENTRICITY":0.00016648,"INCLINATION":87.9222,"RA_OF_ASC_NODE":303.3429,"ARG_OF_PERICENTER":72.6537,"MEAN_ANOMALY":287.4778,"EPHEMERIS_TYPE":0,"CLASSIFICATION_TYPE":"U","NORAD_CAT_ID":55797,"ELEMENT_SET_NO":999,"REV_AT_EPOCH":14205,"BSTAR":-9.6211286e-5,"MEAN_MOTION_DOT":-2.6e-7,"MEAN_MOTION_DDOT":0},{"OBJECT_NAME":"ONEWEB-0556","OBJECT_ID":"2023-029C","EPOCH":"2026-01-23T07:30:35.898336","MEAN_MOTION":13.20771702,"ECCENTRICITY":0.00021403,"INCLINATION":87.9226,"RA_OF_ASC_NODE":303.3883,"ARG_OF_PERICENTER":50.8888,"MEAN_ANOMALY":309.2436,"EPHEMERIS_TYPE":0,"CLASSIFICATION_TYPE":"U","NORAD_CAT_ID":55798,"ELEMENT_SET_NO":999,"REV_AT_EPOCH":14202,"BSTAR":0.00011739988,"MEAN_MOTION_DOT":6.1e-7,"MEAN_MOTION_DDOT":0},{"OBJECT_NAME":"ONEWEB-0562","OBJECT_ID":"2023-029D","EPOCH":"2026-01-23T12:39:41.346432","MEAN_MOTION":13.20772748,"ECCENTRICITY":0.00025321,"INCLINATION":87.9222,"RA_OF_ASC_NODE":303.3264,"ARG_OF_PERICENTER":68.9058,"MEAN_ANOMALY":291.2346,"EPHEMERIS_TYPE":0,"CLASSIFICATION_TYPE":"U","NORAD_CAT_ID":55799,"ELEMENT_SET_NO":999,"REV_AT_EPOCH":14205,"BSTAR":3.4627977e-5,"MEAN_MOTION_DOT":2.7e-7,"MEAN_MOTION_DDOT":0},{"OBJECT_NAME":"ONEWEB-0563","OBJECT_ID":"2023-029E","EPOCH":"2026-01-23T07:03:19.812384","MEAN_MOTION":13.20773475,"ECCENTRICITY":0.00015944,"INCLINATION":87.923,"RA_OF_ASC_NODE":303.4019,"ARG_OF_PERICENTER":67.0084,"MEAN_ANOMALY":293.1217,"EPHEMERIS_TYPE":0,"CLASSIFICATION_TYPE":"U","NORAD_CAT_ID":55800,"ELEMENT_SET_NO":999,"REV_AT_EPOCH":14201,"BSTAR":-2.2757963e-5,"MEAN_MOTION_DOT":4.0e-8,"MEAN_MOTION_DDOT":0},{"OBJECT_NAME":"ONEWEB-0564","OBJECT_ID":"2023-029F","EPOCH":"2026-01-23T12:21:30.644928","MEAN_MOTION":13.2077368,"ECCENTRICITY":0.00020772,"INCLINATION":87.9222,"RA_OF_ASC_NODE":303.3317,"ARG_OF_PERICENTER":74.4949,"MEAN_ANOMALY":285.6414,"EPHEMERIS_TYPE":0,"CLASSIFICATION_TYPE":"U","NORAD_CAT_ID":55801,"ELEMENT_SET_NO":999,"REV_AT_EPOCH":14205,"BSTAR":-1.1168996e-5,"MEAN_MOTION_DOT":8.0e-8,"MEAN_MOTION_DDOT":0},{"OBJECT_NAME":"ONEWEB-0638","OBJECT_ID":"2023-029G","EPOCH":"2026-01-23T12:58:58.099872","MEAN_MOTION":13.14498496,"ECCENTRICITY":0.00025501,"INCLINATION":87.9059,"RA_OF_ASC_NODE":318.5926,"ARG_OF_PERICENTER":67.3312,"MEAN_ANOMALY":292.8087,"EPHEMERIS_TYPE":0,"CLASSIFICATION_TYPE":"U","NORAD_CAT_ID":55802,"ELEMENT_SET_NO":999,"REV_AT_EPOCH":14039,"BSTAR":0.0029591109,"MEAN_MOTION_DOT":1.11e-5,"MEAN_MOTION_DDOT":0},{"OBJECT_NAME":"ONEWEB-0639","OBJECT_ID":"2023-029H","EPOCH":"2026-01-23T08:57:47.172960","MEAN_MOTION":13.19728225,"ECCENTRICITY":7.54e-5,"INCLINATION":87.9238,"RA_OF_ASC_NODE":333.7985,"ARG_OF_PERICENTER":61.3158,"MEAN_ANOMALY":298.805,"EPHEMERIS_TYPE":0,"CLASSIFICATION_TYPE":"U","NORAD_CAT_ID":55803,"ELEMENT_SET_NO":999,"REV_AT_EPOCH":13980,"BSTAR":-0.00011413998,"MEAN_MOTION_DOT":-3.3e-7,"MEAN_MOTION_DDOT":0},{"OBJECT_NAME":"ONEWEB-0640","OBJECT_ID":"2023-029J","EPOCH":"2026-01-23T13:12:38.671776","MEAN_MOTION":13.14502688,"ECCENTRICITY":0.00018588,"INCLINATION":87.9023,"RA_OF_ASC_NODE":318.5819,"ARG_OF_PERICENTER":53.1701,"MEAN_ANOMALY":306.9599,"EPHEMERIS_TYPE":0,"CLASSIFICATION_TYPE":"U","NORAD_CAT_ID":55804,"ELEMENT_SET_NO":999,"REV_AT_EPOCH":14041,"BSTAR":-0.00017404422,"MEAN_MOTION_DOT":-5.2e-7,"MEAN_MOTION_DDOT":0},{"OBJECT_NAME":"ONEWEB-0641","OBJECT_ID":"2023-029K","EPOCH":"2026-01-23T14:18:30.892032","MEAN_MOTION":13.19725685,"ECCENTRICITY":0.00016004,"INCLINATION":87.9246,"RA_OF_ASC_NODE":333.7384,"ARG_OF_PERICENTER":79.3101,"MEAN_ANOMALY":280.8212,"EPHEMERIS_TYPE":0,"CLASSIFICATION_TYPE":"U","NORAD_CAT_ID":55805,"ELEMENT_SET_NO":999,"REV_AT_EPOCH":13984,"BSTAR":0.0001914101,"MEAN_MOTION_DOT":9.0e-7,"MEAN_MOTION_DDOT":0},{"OBJECT_NAME":"ONEWEB-0642","OBJECT_ID":"2023-029L","EPOCH":"2026-01-23T08:44:09.210336","MEAN_MOTION":13.19726532,"ECCENTRICITY":9.186e-5,"INCLINATION":87.9235,"RA_OF_ASC_NODE":333.8028,"ARG_OF_PERICENTER":84.5953,"MEAN_ANOMALY":275.5284,"EPHEMERIS_TYPE":0,"CLASSIFICATION_TYPE":"U","NORAD_CAT_ID":55806,"ELEMENT_SET_NO":999,"REV_AT_EPOCH":13980,"BSTAR":0.00013626327,"MEAN_MOTION_DOT":6.7e-7,"MEAN_MOTION_DDOT":0},{"OBJECT_NAME":"ONEWEB-0643","OBJECT_ID":"2023-029M","EPOCH":"2026-01-23T12:29:13.624512","MEAN_MOTION":13.14505186,"ECCENTRICITY":0.00011182,"INCLINATION":87.9026,"RA_OF_ASC_NODE":318.5748,"ARG_OF_PERICENTER":91.7945,"MEAN_ANOMALY":268.3313,"EPHEMERIS_TYPE":0,"CLASSIFICATION_TYPE":"U","NORAD_CAT_ID":55807,"ELEMENT_SET_NO":999,"REV_AT_EPOCH":14038,"BSTAR":1.6848723e-5,"MEAN_MOTION_DOT":1.9e-7,"MEAN_MOTION_DDOT":0}]
