ONEWEB-0713             
1 55175U 23004AM  26023.53550492  .00000442  00000+0  12125-2 0  9990
2 55175  87.8821  49.8546 0002237  96.4147 263.7236 13.11415869146863
ONEWEB-0715             
1 55176U 23004AN  26023.45411000  .00000236  00000+0  62979-3 0  9997
2 55176  87.8819  49.8716 0001873 117.4398 242.6920 13.11415715146896
ONEWEB-0716             
1 55177U 23004AP  26023.46269213  .00000045  00000+0  82093-4 0  9994
2 55177  87.9082  34.6297 0001661  85.5332 274.5989 13.17648762148521
ONEWEB-0717             
1 55178U 23004AQ  26023.52175553  .00000029  00000+0  41302-4 0  9995
2 55178  87.9095  34.5929 0002527  97.0460 263.0959 13.17648918148588
ONEWEB-0719             
1 55179U 23004AR  26023.45595360  .00000078  00000+0  16785-3 0  9990
2 55179  87.9094  34.5881 0001866  84.9984 275.1361 13.17647939148523
ONEWEB-0530             
1 55796U 23029A   26023.47074336  .00000175  00000+0  39730-3 0  9992
2 55796  87.9225 303.3560 0002192  76.6091 283.5287 13.20772905142042
ONEWEB-0534             
1 55797U 23029B   26023.53387907 -.00000026  00000+0 -96211-4 0  9996
2 55797  87.9222 303.3429 0001664  72.6537 287.4778 13.20773112142058
ONEWEB-0556             
1 55798U 23029C   26023.31291549  .00000061  00000+0  11740-3 0  9999
2 55798  87.9226 303.3883 0002140  50.8888 309.2436 13.20771702142028
ONEWEB-0562             
1 55799U 23029D   26023.52756188  .00000027  00000+0  34628-4 0  9991
2 55799  87.9222 303.3264 0002532  68.9058 291.2346 13.20772748142056
ONEWEB-0563             
1 55800U 23029E   26023.29397931  .00000004  00000+0 -22758-4 0  9992
2 55800  87.9230 303.4019 0001594  67.0084 293.1217 13.20773475142015
ONEWEB-0564             
1 55801U 23029F   26023.51493802  .00000008  00000+0 -11169-4 0  9990
2 55801  87.9222 303.3317 0002077  74.4949 285.6414 13.20773680142053
ONEWEB-0638             
1 55802U 23029G   26023.54095023  .00001110  00000+0  29591-2 0  9997
2 55802  87.9059 318.5926 0002550  67.3312 292.8087 13.14498496140390
ONEWEB-0639             
1 55803U 23029H   26023.37346265 -.00000033  00000+0 -11414-3 0  9997
2 55803  87.9238 333.7985 0000754  61.3158 298.8050 13.19728225139801
ONEWEB-0640             
1 55804U 23029J   26023.55044759 -.00000052  00000+0 -17404-3 0  9997
2 55804  87.9023 318.5819 0001858  53.1701 306.9599 13.14502688140416
ONEWEB-0641             
1 55805U 23029K   26023.59619088  .00000090  00000+0  19141-3 0  9995
2 55805  87.9246 333.7384 0001600  79.3101 280.8212 13.19725685139845
ONEWEB-0642             
1 55806U 23029L   26023.36399549  .00000067  00000+0  13626-3 0  9994
2 55806  87.9235 333.8028 0000918  84.5953 275.5284 13.19726532139802
ONEWEB-0643             
1 55807U 23029M   26023.52029658  .00000019  00000+0  16849-4 0  9992
2 55807  87.9026 318.5748 0001118  91.7945 268.3313 13.14505186140387
